{
  "type": "FeatureCollection",
  "features": [
    {
      "type": "Feature",
      "properties": {
        "norad_id": 24946,
        "name": "IRIDIUM 33",
        "group": "iridium-33-debris",
        "lat": -61.270405271421964,
        "lon": 65.95312334414854,
        "alt_km": 779.9262716817911,
        "timestamp": "2025-12-02T08:59:33.098912+00:00",
        "meta_object_name": "IRIDIUM 33",
        "meta_object_id": "1997-051C",
        "meta_epoch": "2025-12-02T02:35:04.423776",
        "meta_mean_motion": 14.35024333,
        "meta_eccentricity": 0.0006025,
        "meta_inclination": 86.3871,
        "meta_ra_of_asc_node": 72.6839,
        "meta_arg_of_pericenter": 241.8333,
        "meta_mean_anomaly": 118.2255,
        "meta_ephemeris_type": 0,
        "meta_classification_type": "U",
        "meta_norad_cat_id": 24946,
        "meta_element_set_no": 999,
        "meta_rev_at_epoch": 47682,
        "meta_bstar": 0.00015072,
        "meta_mean_motion_dot": 4.49e-06,
        "meta_mean_motion_ddot": 0,
        "tle_line1": "1 24946U 97051C   25336.10769009  .00000449  00000+0  15072-3 0  9992",
        "tle_line2": "2 24946  86.3871  72.6839 0006025 241.8333 118.2255 14.35024333476821"
      },
      "geometry": {
        "type": "Point",
        "coordinates": [
          65.95312334414854,
          -61.270405271421964
        ]
      }
    },
    {
      "type": "Feature",
      "properties": {
        "norad_id": 33773,
        "name": "IRIDIUM 33 DEB",
        "group": "iridium-33-debris",
        "lat": -50.12856157599716,
        "lon": 60.66009569262187,
        "alt_km": 760.2237691706559,
        "timestamp": "2025-12-02T08:59:33.098957+00:00",
        "meta_object_name": "IRIDIUM 33 DEB",
        "meta_object_id": "1997-051L",
        "meta_epoch": "2025-12-02T04:14:00.458016",
        "meta_mean_motion": 14.4321674,
        "meta_eccentricity": 0.0011362,
        "meta_inclination": 86.4014,
        "meta_ra_of_asc_node": 65.0649,
        "meta_arg_of_pericenter": 179.1254,
        "meta_mean_anomaly": 180.9969,
        "meta_ephemeris_type": 0,
        "meta_classification_type": "U",
        "meta_norad_cat_id": 33773,
        "meta_element_set_no": 999,
        "meta_rev_at_epoch": 88195,
        "meta_bstar": 0.00040599,
        "meta_mean_motion_dot": 1.385e-05,
        "meta_mean_motion_ddot": 0,
        "tle_line1": "1 33773U 97051L   25336.17639419  .00001385  00000+0  40599-3 0  9990",
        "tle_line2": "2 33773  86.4014  65.0649 0011362 179.1254 180.9969 14.43216740881955"
      },
      "geometry": {
        "type": "Point",
        "coordinates": [
          60.66009569262187,
          -50.12856157599716
        ]
      }
    },
    {
      "type": "Feature",
      "properties": {
        "norad_id": 33775,
        "name": "IRIDIUM 33 DEB",
        "group": "iridium-33-debris",
        "lat": 79.63303623611677,
        "lon": -146.35966769483196,
        "alt_km": 746.1678049444163,
        "timestamp": "2025-12-02T08:59:33.098974+00:00",
        "meta_object_name": "IRIDIUM 33 DEB",
        "meta_object_id": "1997-051N",
        "meta_epoch": "2025-12-02T03:42:41.664096",
        "meta_mean_motion": 14.41428943,
        "meta_eccentricity": 0.0013078,
        "meta_inclination": 86.3644,
        "meta_ra_of_asc_node": 54.0716,
        "meta_arg_of_pericenter": 188.4713,
        "meta_mean_anomaly": 210.2825,
        "meta_ephemeris_type": 0,
        "meta_classification_type": "U",
        "meta_norad_cat_id": 33775,
        "meta_element_set_no": 999,
        "meta_rev_at_epoch": 87988,
        "meta_bstar": 0.00041132,
        "meta_mean_motion_dot": 1.354e-05,
        "meta_mean_motion_ddot": 0,
        "tle_line1": "1 33775U 97051N   25336.15464889  .00001354  00000+0  41132-3 0  9997",
        "tle_line2": "2 33775  86.3644  54.0716 0013078 188.4713 210.2825 14.41428943879882"
      },
      "geometry": {
        "type": "Point",
        "coordinates": [
          -146.35966769483196,
          79.63303623611677
        ]
      }
    },
    {
      "type": "Feature",
      "properties": {
        "norad_id": 33776,
        "name": "IRIDIUM 33 DEB",
        "group": "iridium-33-debris",
        "lat": 86.39758432099165,
        "lon": 172.60212332038307,
        "alt_km": 763.8475156625464,
        "timestamp": "2025-12-02T08:59:33.098988+00:00",
        "meta_object_name": "IRIDIUM 33 DEB",
        "meta_object_id": "1997-051P",
        "meta_epoch": "2025-12-02T01:01:53.566176",
        "meta_mean_motion": 14.38200292,
        "meta_eccentricity": 0.0013244,
        "meta_inclination": 86.4034,
        "meta_ra_of_asc_node": 85.2674,
        "meta_arg_of_pericenter": 227.5906,
        "meta_mean_anomaly": 306.0215,
        "meta_ephemeris_type": 0,
        "meta_classification_type": "U",
        "meta_norad_cat_id": 33776,
        "meta_element_set_no": 999,
        "meta_rev_at_epoch": 87928,
        "meta_bstar": 0.00037608,
        "meta_mean_motion_dot": 1.162e-05,
        "meta_mean_motion_ddot": 0,
        "tle_line1": "1 33776U 97051P   25336.04298109  .00001162  00000+0  37608-3 0  9996",
        "tle_line2": "2 33776  86.4034  85.2674 0013244 227.5906 306.0215 14.38200292879282"
      },
      "geometry": {
        "type": "Point",
        "coordinates": [
          172.60212332038307,
          86.39758432099165
        ]
      }
    },
    {
      "type": "Feature",
      "properties": {
        "norad_id": 33777,
        "name": "IRIDIUM 33 DEB",
        "group": "iridium-33-debris",
        "lat": -48.111654007428236,
        "lon": 35.663777525295835,
        "alt_km": 711.1472588321658,
        "timestamp": "2025-12-02T08:59:33.099001+00:00",
        "meta_object_name": "IRIDIUM 33 DEB",
        "meta_object_id": "1997-051Q",
        "meta_epoch": "2025-12-02T04:15:48.952224",
        "meta_mean_motion": 14.5547946,
        "meta_eccentricity": 0.0005214,
        "meta_inclination": 86.3801,
        "meta_ra_of_asc_node": 39.7969,
        "meta_arg_of_pericenter": 298.6098,
        "meta_mean_anomaly": 61.4585,
        "meta_ephemeris_type": 0,
        "meta_classification_type": "U",
        "meta_norad_cat_id": 33777,
        "meta_element_set_no": 999,
        "meta_rev_at_epoch": 88380,
        "meta_bstar": 0.0011304,
        "meta_mean_motion_dot": 4.937e-05,
        "meta_mean_motion_ddot": 0,
        "tle_line1": "1 33777U 97051Q   25336.17764991  .00004937  00000+0  11304-2 0  9995",
        "tle_line2": "2 33777  86.3801  39.7969 0005214 298.6098  61.4585 14.55479460883803"
      },
      "geometry": {
        "type": "Point",
        "coordinates": [
          35.663777525295835,
          -48.111654007428236
        ]
      }
    },
    {
      "type": "Feature",
      "properties": {
        "norad_id": 33850,
        "name": "IRIDIUM 33 DEB",
        "group": "iridium-33-debris",
        "lat": 55.14387676557844,
        "lon": 39.905320597669146,
        "alt_km": 752.3026253164217,
        "timestamp": "2025-12-02T08:59:33.099014+00:00",
        "meta_object_name": "IRIDIUM 33 DEB",
        "meta_object_id": "1997-051T",
        "meta_epoch": "2025-12-02T03:59:09.775104",
        "meta_mean_motion": 14.42107156,
        "meta_eccentricity": 0.0011096,
        "meta_inclination": 86.3425,
        "meta_ra_of_asc_node": 34.7255,
        "meta_arg_of_pericenter": 194.4722,
        "meta_mean_anomaly": 218.694,
        "meta_ephemeris_type": 0,
        "meta_classification_type": "U",
        "meta_norad_cat_id": 33850,
        "meta_element_set_no": 999,
        "meta_rev_at_epoch": 88000,
        "meta_bstar": 0.00051559,
        "meta_mean_motion_dot": 1.715e-05,
        "meta_mean_motion_ddot": 0,
        "tle_line1": "1 33850U 97051T   25336.16608536  .00001715  00000+0  51559-3 0  9996",
        "tle_line2": "2 33850  86.3425  34.7255 0011096 194.4722 218.6940 14.42107156880008"
      },
      "geometry": {
        "type": "Point",
        "coordinates": [
          39.905320597669146,
          55.14387676557844
        ]
      }
    },
    {
      "type": "Feature",
      "properties": {
        "norad_id": 33853,
        "name": "IRIDIUM 33 DEB",
        "group": "iridium-33-debris",
        "lat": -63.84714518810316,
        "lon": -177.4515446394454,
        "alt_km": 766.4818319762753,
        "timestamp": "2025-12-02T08:59:33.099026+00:00",
        "meta_object_name": "IRIDIUM 33 DEB",
        "meta_object_id": "1997-051W",
        "meta_epoch": "2025-12-02T01:14:36.905856",
        "meta_mean_motion": 13.98945927,
        "meta_eccentricity": 0.0206855,
        "meta_inclination": 86.0005,
        "meta_ra_of_asc_node": 354.4987,
        "meta_arg_of_pericenter": 268.8529,
        "meta_mean_anomaly": 151.103,
        "meta_ephemeris_type": 0,
        "meta_classification_type": "U",
        "meta_norad_cat_id": 33853,
        "meta_element_set_no": 999,
        "meta_rev_at_epoch": 85196,
        "meta_bstar": 0.0024792,
        "meta_mean_motion_dot": 4.313e-05,
        "meta_mean_motion_ddot": 0,
        "tle_line1": "1 33853U 97051W   25336.05181604  .00004313  00000+0  24792-2 0  9994",
        "tle_line2": "2 33853  86.0005 354.4987 0206855 268.8529 151.1030 13.98945927851966"
      },
      "geometry": {
        "type": "Point",
        "coordinates": [
          -177.4515446394454,
          -63.84714518810316
        ]
      }
    }
  ]
}